CCSDS_OMM_VERS = 2.0
CREATION_DATE  = 
ORIGINATOR     = 

OBJECT_NAME    = STARLINK-36215
OBJECT_ID      = 2025-298AB
CENTER_NAME    = EARTH
REF_FRAME      = TEME
TIME_SYSTEM    = UTC
MEAN_ELEMENT_THEORY = SGP/SGP4

EPOCH          = 2025-12-30T14:00:01.999872
MEAN_MOTION    = 15.60643190
ECCENTRICITY   = .00032572
INCLINATION    = 69.9992
RA_OF_ASC_NODE = 199.3357
ARG_OF_PERICENTER = 267.4509
MEAN_ANOMALY   = 345.4244

EPHEMERIS_TYPE = 0
CLASSIFICATION_TYPE = U
NORAD_CAT_ID   = 67100
ELEMENT_SET_NO = 999
REV_AT_EPOCH   = 384
BSTAR          = -.22889757E-1
MEAN_MOTION_DOT = -.1706718E-1
MEAN_MOTION_DDOT = 0

CCSDS_OMM_VERS = 2.0
CREATION_DATE  = 
ORIGINATOR     = 

OBJECT_NAME    = STARLINK-36200
OBJECT_ID      = 2025-298AC
CENTER_NAME    = EARTH
REF_FRAME      = TEME
TIME_SYSTEM    = UTC
MEAN_ELEMENT_THEORY = SGP/SGP4

EPOCH          = 2025-12-30T14:00:01.999872
MEAN_MOTION    = 15.60636252
ECCENTRICITY   = .00033675
INCLINATION    = 69.9995
RA_OF_ASC_NODE = 199.3411
ARG_OF_PERICENTER = 265.9295
MEAN_ANOMALY   = 343.1539

EPHEMERIS_TYPE = 0
CLASSIFICATION_TYPE = U
NORAD_CAT_ID   = 67101
ELEMENT_SET_NO = 999
REV_AT_EPOCH   = 384
BSTAR          = -.22878525E-1
MEAN_MOTION_DOT = -.1705631E-1
MEAN_MOTION_DDOT = 0

CCSDS_OMM_VERS = 2.0
CREATION_DATE  = 
ORIGINATOR     = 

OBJECT_NAME    = STARLINK-36255
OBJECT_ID      = 2025-299A
CENTER_NAME    = EARTH
REF_FRAME      = TEME
TIME_SYSTEM    = UTC
MEAN_ELEMENT_THEORY = SGP/SGP4

EPOCH          = 2025-12-30T14:00:01.999872
MEAN_MOTION    = 15.61970384
ECCENTRICITY   = .00014153
INCLINATION    = 42.9994
RA_OF_ASC_NODE = 207.7436
ARG_OF_PERICENTER = 252.8753
MEAN_ANOMALY   = 320.3992

EPHEMERIS_TYPE = 0
CLASSIFICATION_TYPE = U
NORAD_CAT_ID   = 67102
ELEMENT_SET_NO = 999
REV_AT_EPOCH   = 367
BSTAR          = -.24451532E-1
MEAN_MOTION_DOT = -.1934398E-1
MEAN_MOTION_DDOT = 0

CCSDS_OMM_VERS = 2.0
CREATION_DATE  = 
ORIGINATOR     = 

OBJECT_NAME    = STARLINK-36256
OBJECT_ID      = 2025-299B
CENTER_NAME    = EARTH
REF_FRAME      = TEME
TIME_SYSTEM    = UTC
MEAN_ELEMENT_THEORY = SGP/SGP4

EPOCH          = 2025-12-30T14:00:01.999872
MEAN_MOTION    = 15.61992829
ECCENTRICITY   = .00014286
INCLINATION    = 42.9995
RA_OF_ASC_NODE = 207.7400
ARG_OF_PERICENTER = 252.9729
MEAN_ANOMALY   = 322.0100

EPHEMERIS_TYPE = 0
CLASSIFICATION_TYPE = U
NORAD_CAT_ID   = 67103
ELEMENT_SET_NO = 999
REV_AT_EPOCH   = 367
BSTAR          = -.24447604E-1
MEAN_MOTION_DOT = -.1935639E-1
MEAN_MOTION_DDOT = 0

CCSDS_OMM_VERS = 2.0
CREATION_DATE  = 
ORIGINATOR     = 

OBJECT_NAME    = STARLINK-36258
OBJECT_ID      = 2025-299C
CENTER_NAME    = EARTH
REF_FRAME      = TEME
TIME_SYSTEM    = UTC
MEAN_ELEMENT_THEORY = SGP/SGP4

EPOCH          = 2025-12-30T14:00:01.999872
MEAN_MOTION    = 15.62008358
ECCENTRICITY   = .00013956
INCLINATION    = 42.9993
RA_OF_ASC_NODE = 207.7349
ARG_OF_PERICENTER = 253.7238
MEAN_ANOMALY   = 323.0266

EPHEMERIS_TYPE = 0
CLASSIFICATION_TYPE = U
NORAD_CAT_ID   = 67104
ELEMENT_SET_NO = 999
REV_AT_EPOCH   = 367
BSTAR          = -.24443744E-1
MEAN_MOTION_DOT = -.1936389E-1
MEAN_MOTION_DDOT = 0

CCSDS_OMM_VERS = 2.0
CREATION_DATE  = 
ORIGINATOR     = 

OBJECT_NAME    = STARLINK-36261
OBJECT_ID      = 2025-299D
CENTER_NAME    = EARTH
REF_FRAME      = TEME
TIME_SYSTEM    = UTC
MEAN_ELEMENT_THEORY = SGP/SGP4

EPOCH          = 2025-12-30T14:00:01.999872
MEAN_MOTION    = 15.62034091
ECCENTRICITY   = .00013708
INCLINATION    = 42.9993
RA_OF_ASC_NODE = 207.7311
ARG_OF_PERICENTER = 255.0150
MEAN_ANOMALY   = 323.4192

EPHEMERIS_TYPE = 0
CLASSIFICATION_TYPE = U
NORAD_CAT_ID   = 67105
ELEMENT_SET_NO = 999
REV_AT_EPOCH   = 367
BSTAR          = -.24448498E-1
MEAN_MOTION_DOT = -.1938433E-1
MEAN_MOTION_DDOT = 0

CCSDS_OMM_VERS = 2.0
CREATION_DATE  = 
ORIGINATOR     = 

OBJECT_NAME    = STARLINK-36259
OBJECT_ID      = 2025-299E
CENTER_NAME    = EARTH
REF_FRAME      = TEME
TIME_SYSTEM    = UTC
MEAN_ELEMENT_THEORY = SGP/SGP4

EPOCH          = 2025-12-30T14:00:01.999872
MEAN_MOTION    = 15.62051317
ECCENTRICITY   = .00014308
INCLINATION    = 42.9992
RA_OF_ASC_NODE = 207.7218
ARG_OF_PERICENTER = 252.9328
MEAN_ANOMALY   = 329.1474

EPHEMERIS_TYPE = 0
CLASSIFICATION_TYPE = U
NORAD_CAT_ID   = 67106
ELEMENT_SET_NO = 999
REV_AT_EPOCH   = 367
BSTAR          = -.24403536E-1
MEAN_MOTION_DOT = -.1936491E-1
MEAN_MOTION_DDOT = 0

CCSDS_OMM_VERS = 2.0
CREATION_DATE  = 
ORIGINATOR     = 

OBJECT_NAME    = STARLINK-36196
OBJECT_ID      = 2025-299F
CENTER_NAME    = EARTH
REF_FRAME      = TEME
TIME_SYSTEM    = UTC
MEAN_ELEMENT_THEORY = SGP/SGP4

EPOCH          = 2025-12-30T14:00:01.999872
MEAN_MOTION    = 15.62044964
ECCENTRICITY   = .00014339
INCLINATION    = 42.9992
RA_OF_ASC_NODE = 207.7269
ARG_OF_PERICENTER = 252.6286
MEAN_ANOMALY   = 327.5990

EPHEMERIS_TYPE = 0
CLASSIFICATION_TYPE = U
NORAD_CAT_ID   = 67107
ELEMENT_SET_NO = 999
REV_AT_EPOCH   = 367
BSTAR          = -.24403301E-1
MEAN_MOTION_DOT = -.193605E-1
MEAN_MOTION_DDOT = 0

CCSDS_OMM_VERS = 2.0
CREATION_DATE  = 
ORIGINATOR     = 

OBJECT_NAME    = STARLINK-36208
OBJECT_ID      = 2025-299G
CENTER_NAME    = EARTH
REF_FRAME      = TEME
TIME_SYSTEM    = UTC
MEAN_ELEMENT_THEORY = SGP/SGP4

EPOCH          = 2025-12-30T14:00:01.999872
MEAN_MOTION    = 15.62059521
ECCENTRICITY   = .00014757
INCLINATION    = 42.9992
RA_OF_ASC_NODE = 207.7169
ARG_OF_PERICENTER = 252.0199
MEAN_ANOMALY   = 331.9049

EPHEMERIS_TYPE = 0
CLASSIFICATION_TYPE = U
NORAD_CAT_ID   = 67108
ELEMENT_SET_NO = 999
REV_AT_EPOCH   = 367
BSTAR          = -.24400138E-1
MEAN_MOTION_DOT = -.1936836E-1
MEAN_MOTION_DDOT = 0

CCSDS_OMM_VERS = 2.0
CREATION_DATE  = 
ORIGINATOR     = 

OBJECT_NAME    = STARLINK-35764
OBJECT_ID      = 2025-299H
CENTER_NAME    = EARTH
REF_FRAME      = TEME
TIME_SYSTEM    = UTC
MEAN_ELEMENT_THEORY = SGP/SGP4

EPOCH          = 2025-12-30T14:00:01.999872
MEAN_MOTION    = 15.62060998
ECCENTRICITY   = .00014455
INCLINATION    = 42.9990
RA_OF_ASC_NODE = 207.7129
ARG_OF_PERICENTER = 250.2395
MEAN_ANOMALY   = 335.5790

EPHEMERIS_TYPE = 0
CLASSIFICATION_TYPE = U
NORAD_CAT_ID   = 67109
ELEMENT_SET_NO = 999
REV_AT_EPOCH   = 356
BSTAR          = -.24383778E-1
MEAN_MOTION_DOT = -.193577E-1
MEAN_MOTION_DDOT = 0

CCSDS_OMM_VERS = 2.0
CREATION_DATE  = 
ORIGINATOR     = 

OBJECT_NAME    = STARLINK-35781
OBJECT_ID      = 2025-299J
CENTER_NAME    = EARTH
REF_FRAME      = TEME
TIME_SYSTEM    = UTC
MEAN_ELEMENT_THEORY = SGP/SGP4

EPOCH          = 2025-12-30T14:00:01.999872
MEAN_MOTION    = 15.62070953
ECCENTRICITY   = .0001433
INCLINATION    = 42.9990
RA_OF_ASC_NODE = 207.7029
ARG_OF_PERICENTER = 253.3297
MEAN_ANOMALY   = 336.2315

EPHEMERIS_TYPE = 0
CLASSIFICATION_TYPE = U
NORAD_CAT_ID   = 67110
ELEMENT_SET_NO = 999
REV_AT_EPOCH   = 362
BSTAR          = -.2438595E-1
MEAN_MOTION_DOT = -.1936582E-1
MEAN_MOTION_DDOT = 0

CCSDS_OMM_VERS = 2.0
CREATION_DATE  = 
ORIGINATOR     = 

OBJECT_NAME    = STARLINK-35875
OBJECT_ID      = 2025-299K
CENTER_NAME    = EARTH
REF_FRAME      = TEME
TIME_SYSTEM    = UTC
MEAN_ELEMENT_THEORY = SGP/SGP4

EPOCH          = 2025-12-30T14:00:01.999872
MEAN_MOTION    = 15.62064461
ECCENTRICITY   = .00014556
INCLINATION    = 42.9990
RA_OF_ASC_NODE = 207.7081
ARG_OF_PERICENTER = 251.9049
MEAN_ANOMALY   = 335.8019

EPHEMERIS_TYPE = 0
CLASSIFICATION_TYPE = U
NORAD_CAT_ID   = 67111
ELEMENT_SET_NO = 999
REV_AT_EPOCH   = 356
BSTAR          = -.243727E-1
MEAN_MOTION_DOT = -.1935234E-1
MEAN_MOTION_DDOT = 0

