STARLINK-36215          
1 67100U 25298AB  25364.58335648 -.01706718  00000+0 -22890-1 0  9995
2 67100  69.9992 199.3357 0003257 267.4509 345.4244 15.60643190  3843
STARLINK-36200          
1 67101U 25298AC  25364.58335648 -.01705631  00000+0 -22879-1 0  9996
2 67101  69.9995 199.3411 0003367 265.9295 343.1539 15.60636252  3848
STARLINK-36255          
1 67102U 25299A   25364.58335648 -.01934398  00000+0 -24452-1 0  9991
2 67102  42.9994 207.7436 0001415 252.8753 320.3992 15.61970384  3675
STARLINK-36256          
1 67103U 25299B   25364.58335648 -.01935639  00000+0 -24448-1 0  9996
2 67103  42.9995 207.7400 0001428 252.9729 322.0100 15.61992829  3674
STARLINK-36258          
1 67104U 25299C   25364.58335648 -.01936389  00000+0 -24444-1 0  9996
2 67104  42.9993 207.7349 0001395 253.7238 323.0266 15.62008358  3672
STARLINK-36261          
1 67105U 25299D   25364.58335648 -.01938433  00000+0 -24448-1 0  9993
2 67105  42.9993 207.7311 0001370 255.0150 323.4192 15.62034091  3678
STARLINK-36259          
1 67106U 25299E   25364.58335648 -.01936491  00000+0 -24404-1 0  9998
2 67106  42.9992 207.7218 0001430 252.9328 329.1474 15.62051317  3670
STARLINK-36196          
1 67107U 25299F   25364.58335648 -.01936050  00000+0 -24403-1 0  9999
2 67107  42.9992 207.7269 0001433 252.6286 327.5990 15.62044964  3675
STARLINK-36208          
1 67108U 25299G   25364.58335648 -.01936836  00000+0 -24400-1 0  9999
2 67108  42.9992 207.7169 0001475 252.0199 331.9049 15.62059521  3677
STARLINK-35764          
1 67109U 25299H   25364.58335648 -.01935770  00000+0 -24384-1 0  9997
2 67109  42.9990 207.7129 0001445 250.2395 335.5790 15.62060998  3568
STARLINK-35781          
1 67110U 25299J   25364.58335648 -.01936582  00000+0 -24386-1 0  9993
2 67110  42.9990 207.7029 0001433 253.3297 336.2315 15.62070953  3621
STARLINK-35875          
1 67111U 25299K   25364.58335648 -.01935234  00000+0 -24373-1 0  9993
2 67111  42.9990 207.7081 0001455 251.9049 335.8019 15.62064461  3569
